STARLINK-31729          
1 59610U 24080K   26069.30282263 -.00001795  00000+0 -55714-4 0  9993
2 59610  43.0029  31.2257 0001280 261.4753  98.5953 15.27581425104666
STARLINK-31448          
1 59611U 24080L   26069.28739864  .00002027  00000+0  83178-4 0  9997
2 59611  43.0057  31.1070 0001805 253.3991 106.6662 15.27573923104669
STARLINK-31748          
1 59612U 24080M   26069.92199492  .00001846  00000+0  76618-4 0  9995
2 59612  43.0048  27.2745 0001231 277.0540  83.0171 15.27569126105935
STARLINK-31746          
1 59613U 24080N   26069.19163446 -.00001962  00000+0 -61798-4 0  9999
2 59613  43.0002  38.9980 0001465 257.9885 102.0802 15.27578316104566
STARLINK-31762          
1 59614U 24080P   26069.94850776  .00004198  00000+0  16204-3 0  9995
2 59614  43.0054  30.9326 0001241 281.9579  78.1134 15.27572302104727
STARLINK-31761          
1 59615U 24080Q   26069.91670139  .00526764  00000+0  59345-2 0  9996
2 59615  42.9947  22.8504 0023054 179.3889 164.7794 15.59769820  5895
STARLINK-31768          
1 59616U 24080R   26069.29206214 -.00001227  00000+0 -35066-4 0  9997
2 59616  43.0053  34.6032 0001069 271.5201  88.5528 15.27576536104622
STARLINK-31769          
1 59617U 24080S   26069.96392002  .00002041  00000+0  83703-4 0  9997
2 59617  43.0032  31.0438 0001296 267.0396  93.0307 15.27562454104729
STARLINK-31784          
1 59618U 24080T   26069.96214451 -.00000772  00000+0 -18512-4 0  9996
2 59618  43.0080  34.4921 0001441 259.3655 100.7034 15.27579796104686
STARLINK-31777          
1 59619U 24080U   26069.24674385 -.00001154  00000+0 -32405-4 0  9996
2 59619  43.0044  38.5807 0001255 275.4141  84.6567 15.27583685104578
STARLINK-31758          
1 59621U 24080W   26069.32195662  .00002133  00000+0  87065-4 0  9992
2 59621  43.0038  30.5048 0000976 273.0554  87.0186 15.27562123104673
STARLINK-31774          
1 59622U 24080X   26069.94769320  .00001865  00000+0  77304-4 0  9995
2 59622  43.0041  27.4616 0001181 277.7500  82.3217 15.27573922104767
STARLINK-31763          
1 59623U 24080Y   26069.24851324 -.00005161  00000+0 -17804-3 0  9998
2 59623  43.0005  35.1327 0001274 253.8178 106.2533 15.27598044104615
LEGION 1                
1 59625U 24081A   26069.92210187  .00005221  00000+0  26355-3 0  9998
2 59625  97.5066 148.8093 0004961  16.9624 343.1774 15.17530949102649
LEGION 2                
1 59626U 24081B   26069.96177430  .00005719  00000+0  29601-3 0  9995
2 59626  97.5068 148.9238 0010117 340.3664  19.7178 15.16579513102656
STARLINK-31749          
1 59631U 24082A   26069.59083933  .00004861  00000+0  18598-3 0  9995
2 59631  43.0015 134.3855 0001196 255.5181 104.5538 15.27595302105159
STARLINK-31781          
1 59632U 24082B   26069.22740943  .00000836  00000+0  39912-4 0  9999
2 59632  43.0009 122.6586 0001231 280.2033  79.8680 15.27568256105098
STARLINK-31541          
1 59633U 24082C   26069.47131928 -.00004407  00000+0 -15060-3 0  9991
2 59633  43.0044 128.2806 0001602 266.1102  93.9567 15.27603344105209
STARLINK-31797          
1 59634U 24082D   26069.21781943  .00004607  00000+0  17702-3 0  9997
2 59634  42.9998 136.7471 0000912 250.9372 109.1381 15.27542360104934
STARLINK-31798          
1 59635U 24082E   26069.24993625  .00001551  00000+0  65902-4 0  9994
2 59635  43.0037 136.9865 0001212 247.3887 112.6837 15.27569497104895
STARLINK-31802          
1 59636U 24082F   26069.56916057 -.00000241  00000+0  78242-6 0  9993
2 59636  43.0009 135.0803 0001461 181.9330 178.1516 15.27574534104944
STARLINK-31791          
1 59637U 24082G   26069.46779273 -.00001381  00000+0 -40694-4 0  9995
2 59637  42.9971 135.1794 0000536 284.7218  75.3574 15.27586464104936
STARLINK-31727          
1 59638U 24082H   26069.44996924  .00004962  00000+0  18992-3 0  9999
2 59638  43.0038 135.9055 0001424 282.0764  77.9928 15.27542695104978
STARLINK-31807          
1 59639U 24082J   26069.89995190  .00006327  00000+0  23945-3 0  9994
2 59639  43.0007 133.2630 0000879 248.2876 111.7882 15.27550531104992
STARLINK-31806          
1 59640U 24082K   26069.88195747 -.00000187  00000+0  27378-5 0  9990
2 59640  43.0012 133.1365 0001098 275.4446  84.6280 15.27576377104999
STARLINK-31804          
1 59641U 24082L   26069.46393329  .00000779  00000+0  37805-4 0  9992
2 59641  42.9953 135.1489 0000211 136.4661 223.6207 15.27581991104938
STARLINK-31660          
1 59642U 24082M   26069.43171715  .00000471  00000+0  26654-4 0  9992
2 59642  43.0095  95.2549 0003035 328.6406  31.4264 15.27585448105581
STARLINK-31800          
1 59643U 24082N   26069.23965456 -.00002817  00000+0 -92888-4 0  9994
2 59643  42.9991 136.8881 0000817 179.7153 180.3700 15.27584371104992
STARLINK-31789          
1 59644U 24082P   26069.21396221  .00031693  00000+0  11558-2 0  9996
2 59644  42.9956 136.7143 0000523 206.6937 153.3887 15.27593278105092
STARLINK-31795          
1 59645U 24082Q   26069.43142904 -.00000305  00000+0 -15456-5 0  9990
2 59645  43.0035  77.0481 0001389 265.3895  94.6798 15.27590605105595
STARLINK-31796          
1 59646U 24082R   26069.87424507  .00001493  00000+0  63765-4 0  9993
2 59646  42.9994 133.0721 0000904 247.1750 112.9006 15.27572257105159
STARLINK-31801          
1 59647U 24082S   26069.45380718  .00000109  00000+0  13464-4 0  9997
2 59647  43.0019 135.9312 0000984 249.1721 110.9025 15.27577955104973
STARLINK-31787          
1 59650U 24082V   26069.22423978  .00000872  00000+0  41239-4 0  9990
2 59650  43.0009 136.7959 0001647 293.3900  66.6778 15.27571561105092
STARLINK-31277          
1 59651U 24082W   26069.88581218  .00002652  00000+0  10588-3 0  9995
2 59651  42.9982 133.1590 0000380 183.1347 176.9502 15.27574087105194
STARLINK-31799          
1 59652U 24082X   26069.20384752 -.00000367  00000+0 -38148-5 0  9993
2 59652  43.0013 126.2324 0001080 154.3629 205.7277 15.27567375105069
STARLINK-31764          
1 59653U 24082Y   26069.60245416  .00023745  00000+0  87239-3 0  9997
2 59653  42.9981 134.4668 0000843 163.0153 197.0727 15.27475688105157
STARLINK-31589          
1 59654U 24084A   26069.33391901  .00000541  00000+0  29169-4 0  9999
2 59654  42.9999  37.9927 0000933 252.3056 107.7694 15.27567196104499
STARLINK-31665          
1 59655U 24084B   26069.27672323  .00003333  00000+0  13062-3 0  9999
2 59655  43.0048  34.9656 0001265 256.0276 104.0435 15.27570697104502
STARLINK-31912          
1 59656U 24084C   26069.95068428 -.00002953  00000+0 -97907-4 0  9990
2 59656  43.0044  34.8829 0000567 282.2484  77.8304 15.27553495104561
STARLINK-31904          
1 59657U 24084D   26069.87499811  .00004544  00000+0  17469-3 0  9996
2 59657  43.0050  35.1689 0000522 241.1962 118.8837 15.27553452104552
STARLINK-31858          
1 59658U 24084E   26069.26082022  .00001966  00000+0  80992-4 0  9999
2 59658  43.0027  38.3000 0001294 266.5241  93.5463 15.27566724104467
STARLINK-31881          
1 59659U 24084F   26069.25358619 -.00002582  00000+0 -84292-4 0  9991
2 59659  43.0052  34.7845 0001040 288.8975  71.1763 15.27591511104505
STARLINK-31885          
1 59660U 24084G   26069.28442673 -.00007702  00000+0 -27046-3 0  9992
2 59660  43.0043  35.0216 0000952 247.4144 112.6607 15.27603311104503
STARLINK-31880          
1 59661U 24084H   26069.92416321 -.00000370  00000+0 -39010-5 0  9995
2 59661  43.0053  31.2208 0001991 278.4680  81.5946 15.27572732104600
STARLINK-31886          
1 59662U 24084J   26069.94680747  .00001298  00000+0  56718-4 0  9994
2 59662  43.0067  34.8514 0001735 280.6491  79.4166 15.27572044104567
STARLINK-31909          
1 59663U 24084K   26069.31591143  .00000279  00000+0  19641-4 0  9999
2 59663  43.0023  37.8948 0001211 247.1134 112.9590 15.27614685104477
STARLINK-31910          
1 59664U 24084L   26069.26467233 -.00004577  00000+0 -15685-3 0  9996
2 59664  43.0013  38.3283 0001101 278.1426  81.9301 15.27589754104463
STARLINK-31902          
1 59666U 24084N   26069.30065035 -.00001526  00000+0 -45920-4 0  9994
2 59666  43.0044  38.6008 0001193 279.0183  81.0534 15.27582614104465
STARLINK-31913          
1 59667U 24084P   26069.33183338 -.00000433  00000+0 -62374-5 0  9994
2 59667  43.0033  34.5130 0000974 268.7944  91.2796 15.27564617104513
STARLINK-31866          
1 59668U 24084Q   26069.31175260  .00011659  00000+0  43329-3 0  9995
2 59668  42.9996  30.8833 0000948 230.8565 129.2202 15.27521930104558
STARLINK-31917          
1 59669U 24084R   26069.93652362 -.00002287  00000+0 -73604-4 0  9996
2 59669  43.0071  34.7650 0002274 278.8033  81.2561 15.27565734104567
STARLINK-31860          
1 59670U 24084S   26069.93443813  .00000377  00000+0  23213-4 0  9994
2 59670  43.0037  31.2908 0001193 233.7527 126.3214 15.27578375104589
STARLINK-31854          
1 59671U 24084T   26069.82516367  .00000719  00000+0  35611-4 0  9993
2 59671  42.9960   2.3571 0000068 116.1881 243.8978 15.27577739104906
STARLINK-31842          
1 59672U 24084U   26069.94215660  .00000658  00000+0  33438-4 0  9996
2 59672  43.0045  31.3519 0000990 263.1071  96.9668 15.27566117104603
STARLINK-31871          
1 59673U 24084V   26069.27494766 -.00004708  00000+0 -16162-3 0  9995
2 59673  43.0010  38.3969 0000809 231.9005 128.1774 15.27591189104468
STARLINK-31875          
1 59674U 24084W   26069.27286654 -.00002853  00000+0 -94200-4 0  9990
2 59674  43.0046  34.9267 0000660 255.8321 104.2458 15.27580302104506
STARLINK-31877          
1 59675U 24084X   26069.29039015 -.00000903  00000+0 -23304-4 0  9991
2 59675  43.0006  38.5133 0001043 180.4800 179.6051 15.27562997104466
STARLINK-31884          
1 59676U 24084Y   26069.93267382  .00002133  00000+0  87038-4 0  9992
2 59676  43.0054  34.7606 0001546 265.7736  94.2940 15.27577235104567
2024-085B               
1 59678U 24085B   26069.87325302  .00878456  38316-3  15278-2 0  9994
2 59678  97.3336 162.4097 0012649 295.7961  64.2013 16.02143674103608
